[{"OBJECT_NAME":"STARLINK-36173","OBJECT_ID":"2025-304U","EPOCH":"2026-03-09T16:26:35.018592","MEAN_MOTION":14.99143783,"ECCENTRICITY":0.00036048,"INCLINATION":70.0013,"RA_OF_ASC_NODE":174.4831,"ARG_OF_PERICENTER":269.9682,"MEAN_ANOMALY":90.1065,"EPHEMERIS_TYPE":0,"CLASSIFICATION_TYPE":"U","NORAD_CAT_ID":67210,"ELEMENT_SET_NO":999,"REV_AT_EPOCH":1388,"BSTAR":0.00033818283,"MEAN_MOTION_DOT":4.03e-5,"MEAN_MOTION_DDOT":0},{"OBJECT_NAME":"AISSAT 1","OBJECT_ID":"2010-035C","EPOCH":"2026-03-09T18:13:55.092288","MEAN_MOTION":14.96891223,"ECCENTRICITY":0.00096674,"INCLINATION":98.1015,"RA_OF_ASC_NODE":324.4785,"ARG_OF_PERICENTER":31.9143,"MEAN_ANOMALY":328.2662,"EPHEMERIS_TYPE":0,"CLASSIFICATION_TYPE":"U","NORAD_CAT_ID":36797,"ELEMENT_SET_NO":999,"REV_AT_EPOCH":84934,"BSTAR":0.00027660201,"MEAN_MOTION_DOT":3.114e-5,"MEAN_MOTION_DDOT":0}]
